[
  {
    "COMMENT": "GENERATED VIA SPACETRACK.ORG API",
    "ORIGINATOR": "18 SPCS",
    "NORAD_CAT_ID": "41240",
    "OBJECT_NAME": "JASON 3",
    "OBJECT_TYPE": "PAYLOAD",
    "CLASSIFICATION_TYPE": "U",
    "INTLDES": "16002A",
    "EPOCH": "2023-05-20 20:12:55",
    "EPOCH_MICROSECONDS": "437120",
    "MEAN_MOTION": "12.80931575",
    "ECCENTRICITY": "0.0007612",
    "INCLINATION": "66.0414",
    "RA_OF_ASC_NODE": "308.3108",
    "ARG_OF_PERICENTER": "271.9247",
    "MEAN_ANOMALY": "88.0896",
    "EPHEMERIS_TYPE": "0",
    "ELEMENT_SET_NO": "999",
    "REV_AT_EPOCH": "34312",
    "BSTAR": "0.0001165",
    "MEAN_MOTION_DOT": "-0.00000034",
    "MEAN_MOTION_DDOT": "0",
    "FILE": "3913175",
    "TLE_LINE0": "0 JASON 3",
    "TLE_LINE1": "1 41240U 16002A   23140.84230830 -.00000034  00000-0  11650-3 0  9992",
    "TLE_LINE2": "2 41240  66.0414 308.3108 0007612 271.9247  88.0896 12.80931575343128",
    "OBJECT_ID": "2016-002A",
    "OBJECT_NUMBER": "41240",
    "SEMIMAJOR_AXIS": "7715.864",
    "PERIOD": "112.418",
    "APOGEE": "1343.602",
    "PERIGEE": "1331.856",
    "DECAYED": "0"
  },
  {
    "COMMENT": "GENERATED VIA SPACETRACK.ORG API",
    "ORIGINATOR": "18 SPCS",
    "NORAD_CAT_ID": "41240",
    "OBJECT_NAME": "JASON 3",
    "OBJECT_TYPE": "PAYLOAD",
    "CLASSIFICATION_TYPE": "U",
    "INTLDES": "16002A",
    "EPOCH": "2023-05-21 13:04:47",
    "EPOCH_MICROSECONDS": "209440",
    "MEAN_MOTION": "12.80931566",
    "ECCENTRICITY": "0.000762",
    "INCLINATION": "66.0414",
    "RA_OF_ASC_NODE": "306.8512",
    "ARG_OF_PERICENTER": "271.8382",
    "MEAN_ANOMALY": "88.176",
    "EPHEMERIS_TYPE": "0",
    "ELEMENT_SET_NO": "999",
    "REV_AT_EPOCH": "34321",
    "BSTAR": "0.000064389",
    "MEAN_MOTION_DOT": "-0.00000046",
    "MEAN_MOTION_DDOT": "0",
    "FILE": "3913738",
    "TLE_LINE0": "0 JASON 3",
    "TLE_LINE1": "1 41240U 16002A   23141.54499085 -.00000046  00000-0  64389-4 0  9990",
    "TLE_LINE2": "2 41240  66.0414 306.8512 0007620 271.8382  88.1760 12.80931566343219",
    "OBJECT_ID": "2016-002A",
    "OBJECT_NUMBER": "41240",
    "SEMIMAJOR_AXIS": "7715.864",
    "PERIOD": "112.418",
    "APOGEE": "1343.608",
    "PERIGEE": "1331.849",
    "DECAYED": "0"
  },
  {
    "COMMENT": "GENERATED VIA SPACETRACK.ORG API",
    "ORIGINATOR": "18 SPCS",
    "NORAD_CAT_ID": "41240",
    "OBJECT_NAME": "JASON 3",
    "OBJECT_TYPE": "PAYLOAD",
    "CLASSIFICATION_TYPE": "U",
    "INTLDES": "16002A",
    "EPOCH": "2023-05-21 18:42:04",
    "EPOCH_MICROSECONDS": "464576",
    "MEAN_MOTION": "12.80931626",
    "ECCENTRICITY": "0.0007623",
    "INCLINATION": "66.0414",
    "RA_OF_ASC_NODE": "306.3647",
    "ARG_OF_PERICENTER": "271.8091",
    "MEAN_ANOMALY": "88.2051",
    "EPHEMERIS_TYPE": "0",
    "ELEMENT_SET_NO": "999",
    "REV_AT_EPOCH": "34338",
    "BSTAR": "0.00013115",
    "MEAN_MOTION_DOT": "-0.00000031",
    "MEAN_MOTION_DDOT": "0",
    "FILE": "3913851",
    "TLE_LINE0": "0 JASON 3",
    "TLE_LINE1": "1 41240U 16002A   23141.77921834 -.00000031  00000-0  13115-3 0  9991",
    "TLE_LINE2": "2 41240  66.0414 306.3647 0007623 271.8091  88.2051 12.80931626343382",
    "OBJECT_ID": "2016-002A",
    "OBJECT_NUMBER": "41240",
    "SEMIMAJOR_AXIS": "7715.864",
    "PERIOD": "112.418",
    "APOGEE": "1343.610",
    "PERIGEE": "1331.847",
    "DECAYED": "0"
  },
  {
    "COMMENT": "GENERATED VIA SPACETRACK.ORG API",
    "ORIGINATOR": "18 SPCS",
    "NORAD_CAT_ID": "41240",
    "OBJECT_NAME": "JASON 3",
    "OBJECT_TYPE": "PAYLOAD",
    "CLASSIFICATION_TYPE": "U",
    "INTLDES": "16002A",
    "EPOCH": "2023-05-21 20:34:30",
    "EPOCH_MICROSECONDS": "218016",
    "MEAN_MOTION": "12.8093162",
    "ECCENTRICITY": "0.0007625",
    "INCLINATION": "66.0414",
    "RA_OF_ASC_NODE": "306.2025",
    "ARG_OF_PERICENTER": "271.802",
    "MEAN_ANOMALY": "88.2121",
    "EPHEMERIS_TYPE": "0",
    "ELEMENT_SET_NO": "999",
    "REV_AT_EPOCH": "34325",
    "BSTAR": "0.00012074",
    "MEAN_MOTION_DOT": "-0.00000033",
    "MEAN_MOTION_DDOT": "0",
    "FILE": "3914061",
    "TLE_LINE0": "0 JASON 3",
    "TLE_LINE1": "1 41240U 16002A   23141.85729419 -.00000033  00000-0  12074-3 0  9990",
    "TLE_LINE2": "2 41240  66.0414 306.2025 0007625 271.8020  88.2121 12.80931620343253",
    "OBJECT_ID": "2016-002A",
    "OBJECT_NUMBER": "41240",
    "SEMIMAJOR_AXIS": "7715.864",
    "PERIOD": "112.418",
    "APOGEE": "1343.612",
    "PERIGEE": "1331.845",
    "DECAYED": "0"
  },
  {
    "COMMENT": "GENERATED VIA SPACETRACK.ORG API",
    "ORIGINATOR": "18 SPCS",
    "NORAD_CAT_ID": "41240",
    "OBJECT_NAME": "JASON 3",
    "OBJECT_TYPE": "PAYLOAD",
    "CLASSIFICATION_TYPE": "U",
    "INTLDES": "16002A",
    "EPOCH": "2023-05-22 13:26:21",
    "EPOCH_MICROSECONDS": "992064",
    "MEAN_MOTION": "12.80931577",
    "ECCENTRICITY": "0.0007626",
    "INCLINATION": "66.0414",
    "RA_OF_ASC_NODE": "304.743",
    "ARG_OF_PERICENTER": "271.7362",
    "MEAN_ANOMALY": "88.278",
    "EPHEMERIS_TYPE": "0",
    "ELEMENT_SET_NO": "999",
    "REV_AT_EPOCH": "34334",
    "BSTAR": "0.000036792",
    "MEAN_MOTION_DOT": "-0.00000053",
    "MEAN_MOTION_DDOT": "0",
    "FILE": "3914693",
    "TLE_LINE0": "0 JASON 3",
    "TLE_LINE1": "1 41240U 16002A   23142.55997676 -.00000053  00000-0  36792-4 0  9996",
    "TLE_LINE2": "2 41240  66.0414 304.7430 0007626 271.7362  88.2780 12.80931577343347",
    "OBJECT_ID": "2016-002A",
    "OBJECT_NUMBER": "41240",
    "SEMIMAJOR_AXIS": "7715.864",
    "PERIOD": "112.418",
    "APOGEE": "1343.613",
    "PERIGEE": "1331.845",
    "DECAYED": "0"
  },
  {
    "COMMENT": "GENERATED VIA SPACETRACK.ORG API",
    "ORIGINATOR": "18 SPCS",
    "NORAD_CAT_ID": "41240",
    "OBJECT_NAME": "JASON 3",
    "OBJECT_TYPE": "PAYLOAD",
    "CLASSIFICATION_TYPE": "U",
    "INTLDES": "16002A",
    "EPOCH": "2023-05-22 19:03:39",
    "EPOCH_MICROSECONDS": "248928",
    "MEAN_MOTION": "12.80931602",
    "ECCENTRICITY": "0.000763",
    "INCLINATION": "66.0414",
    "RA_OF_ASC_NODE": "304.2564",
    "ARG_OF_PERICENTER": "271.7303",
    "MEAN_ANOMALY": "88.2838",
    "EPHEMERIS_TYPE": "0",
    "ELEMENT_SET_NO": "999",
    "REV_AT_EPOCH": "34351",
    "BSTAR": "0.000059365",
    "MEAN_MOTION_DOT": "-0.00000047",
    "MEAN_MOTION_DDOT": "0",
    "FILE": "3914783",
    "TLE_LINE0": "0 JASON 3",
    "TLE_LINE1": "1 41240U 16002A   23142.79420427 -.00000047  00000-0  59365-4 0  9991",
    "TLE_LINE2": "2 41240  66.0414 304.2564 0007630 271.7303  88.2838 12.80931602343512",
    "OBJECT_ID": "2016-002A",
    "OBJECT_NUMBER": "41240",
    "SEMIMAJOR_AXIS": "7715.864",
    "PERIOD": "112.418",
    "APOGEE": "1343.616",
    "PERIGEE": "1331.842",
    "DECAYED": "0"
  },
  {
    "COMMENT": "GENERATED VIA SPACETRACK.ORG API",
    "ORIGINATOR": "18 SPCS",
    "NORAD_CAT_ID": "41240",
    "OBJECT_NAME": "JASON 3",
    "OBJECT_TYPE": "PAYLOAD",
    "CLASSIFICATION_TYPE": "U",
    "INTLDES": "16002A",
    "EPOCH": "2023-05-22 20:56:04",
    "EPOCH_MICROSECONDS": "999776",
    "MEAN_MOTION": "12.80931619",
    "ECCENTRICITY": "0.0007631",
    "INCLINATION": "66.0414",
    "RA_OF_ASC_NODE": "304.0943",
    "ARG_OF_PERICENTER": "271.7268",
    "MEAN_ANOMALY": "88.2873",
    "EPHEMERIS_TYPE": "0",
    "ELEMENT_SET_NO": "999",
    "REV_AT_EPOCH": "34338",
    "BSTAR": "0.000067399",
    "MEAN_MOTION_DOT": "-0.00000046",
    "MEAN_MOTION_DDOT": "0",
    "FILE": "3914964",
    "TLE_LINE0": "0 JASON 3",
    "TLE_LINE1": "1 41240U 16002A   23142.87228009 -.00000046  00000-0  67399-4 0  9997",
    "TLE_LINE2": "2 41240  66.0414 304.0943 0007631 271.7268  88.2873 12.80931619343384",
    "OBJECT_ID": "2016-002A",
    "OBJECT_NUMBER": "41240",
    "SEMIMAJOR_AXIS": "7715.864",
    "PERIOD": "112.418",
    "APOGEE": "1343.617",
    "PERIGEE": "1331.841",
    "DECAYED": "0"
  },
  {
    "COMMENT": "GENERATED VIA SPACETRACK.ORG API",
    "ORIGINATOR": "18 SPCS",
    "NORAD_CAT_ID": "41240",
    "OBJECT_NAME": "JASON 3",
    "OBJECT_TYPE": "PAYLOAD",
    "CLASSIFICATION_TYPE": "U",
    "INTLDES": "16002A",
    "EPOCH": "2023-05-23 21:17:39",
    "EPOCH_MICROSECONDS": "772032",
    "MEAN_MOTION": "12.80931726",
    "ECCENTRICITY": "0.0007638",
    "INCLINATION": "66.0415",
    "RA_OF_ASC_NODE": "301.986",
    "ARG_OF_PERICENTER": "271.5916",
    "MEAN_ANOMALY": "88.4225",
    "EPHEMERIS_TYPE": "0",
    "ELEMENT_SET_NO": "999",
    "REV_AT_EPOCH": "34351",
    "BSTAR": "0.00016641",
    "MEAN_MOTION_DOT": "-0.00000023",
    "MEAN_MOTION_DDOT": "0",
    "FILE": "3915766",
    "TLE_LINE0": "0 JASON 3",
    "TLE_LINE1": "1 41240U 16002A   23143.88726588 -.00000023  00000-0  16641-3 0  9992",
    "TLE_LINE2": "2 41240  66.0415 301.9860 0007638 271.5916  88.4225 12.80931726343511",
    "OBJECT_ID": "2016-002A",
    "OBJECT_NUMBER": "41240",
    "SEMIMAJOR_AXIS": "7715.863",
    "PERIOD": "112.418",
    "APOGEE": "1343.622",
    "PERIGEE": "1331.835",
    "DECAYED": "0"
  },
  {
    "COMMENT": "GENERATED VIA SPACETRACK.ORG API",
    "ORIGINATOR": "18 SPCS",
    "NORAD_CAT_ID": "41240",
    "OBJECT_NAME": "JASON 3",
    "OBJECT_TYPE": "PAYLOAD",
    "CLASSIFICATION_TYPE": "U",
    "INTLDES": "16002A",
    "EPOCH": "2023-05-24 01:02:31",
    "EPOCH_MICROSECONDS": "276320",
    "MEAN_MOTION": "12.80931716",
    "ECCENTRICITY": "0.0007641",
    "INCLINATION": "66.0415",
    "RA_OF_ASC_NODE": "301.6617",
    "ARG_OF_PERICENTER": "271.5925",
    "MEAN_ANOMALY": "88.4215",
    "EPHEMERIS_TYPE": "0",
    "ELEMENT_SET_NO": "999",
    "REV_AT_EPOCH": "34367",
    "BSTAR": "0.00014841",
    "MEAN_MOTION_DOT": "-0.00000027",
    "MEAN_MOTION_DDOT": "0",
    "FILE": "3915888",
    "TLE_LINE0": "0 JASON 3",
    "TLE_LINE1": "1 41240U 16002A   23144.04341755 -.00000027  00000-0  14841-3 0  9994",
    "TLE_LINE2": "2 41240  66.0415 301.6617 0007641 271.5925  88.4215 12.80931716343677",
    "OBJECT_ID": "2016-002A",
    "OBJECT_NUMBER": "41240",
    "SEMIMAJOR_AXIS": "7715.863",
    "PERIOD": "112.418",
    "APOGEE": "1343.624",
    "PERIGEE": "1331.833",
    "DECAYED": "0"
  }
]